{
  "type": "FeatureCollection",
  "features": [
    {
      "type": "Feature",
      "properties": {
        "norad_id": 30630,
        "name": "FENGYUN 1C DEB",
        "group": "fengyun-1c-debris",
        "lat": -50.07447594525954,
        "lon": -16.80378700342102,
        "alt_km": 841.819796309288,
        "timestamp": "2025-12-26T17:24:54.997004+00:00",
        "meta_object_name": "FENGYUN 1C DEB",
        "meta_object_id": "1999-025ANM",
        "meta_epoch": "2025-12-25T07:10:20.154432",
        "meta_mean_motion": 14.22421015,
        "meta_eccentricity": 0.0025708,
        "meta_inclination": 99.1734,
        "meta_ra_of_asc_node": 172.8451,
        "meta_arg_of_pericenter": 39.3494,
        "meta_mean_anomaly": 89.4796,
        "meta_ephemeris_type": 0,
        "meta_classification_type": "U",
        "meta_norad_cat_id": 30630,
        "meta_element_set_no": 999,
        "meta_rev_at_epoch": 97391,
        "meta_bstar": 0.00080041,
        "meta_mean_motion_dot": 1.741e-05,
        "meta_mean_motion_ddot": 0,
        "tle_line1": "1 30630U 99025ANM 25359.29884438  .00001741  00000+0  80041-3 0  9995",
        "tle_line2": "2 30630  99.1734 172.8451 0025708  39.3494  89.4796 14.22421015973913"
      },
      "geometry": {
        "type": "Point",
        "coordinates": [
          -16.80378700342102,
          -50.07447594525954
        ]
      }
    },
    {
      "type": "Feature",
      "properties": {
        "norad_id": 30632,
        "name": "FENGYUN 1C DEB",
        "group": "fengyun-1c-debris",
        "lat": -56.99197829702014,
        "lon": 146.8774502441273,
        "alt_km": 699.3743178789928,
        "timestamp": "2025-12-26T17:24:54.997014+00:00",
        "meta_object_name": "FENGYUN 1C DEB",
        "meta_object_id": "1999-025ANP",
        "meta_epoch": "2025-12-26T06:30:09.967680",
        "meta_mean_motion": 14.63217884,
        "meta_eccentricity": 0.00136283,
        "meta_inclination": 98.8249,
        "meta_ra_of_asc_node": 132.5547,
        "meta_arg_of_pericenter": 129.3738,
        "meta_mean_anomaly": 298.8925,
        "meta_ephemeris_type": 0,
        "meta_classification_type": "U",
        "meta_norad_cat_id": 30632,
        "meta_element_set_no": 999,
        "meta_rev_at_epoch": 97889,
        "meta_bstar": 0.003690116,
        "meta_mean_motion_dot": 0.00019027,
        "meta_mean_motion_ddot": 0,
        "tle_line1": "1 30632U 99025ANP 25360.27094870  .00019027  00000+0  36901-2 0  9991",
        "tle_line2": "2 30632  98.8249 132.5547 0013628 129.3738 298.8925 14.63217884978894"
      },
      "geometry": {
        "type": "Point",
        "coordinates": [
          146.8774502441273,
          -56.99197829702014
        ]
      }
    },
    {
      "type": "Feature",
      "properties": {
        "norad_id": 30633,
        "name": "FENGYUN 1C DEB",
        "group": "fengyun-1c-debris",
        "lat": 56.05875162349592,
        "lon": 57.43764179221311,
        "alt_km": 884.1998670789362,
        "timestamp": "2025-12-26T17:24:54.997024+00:00",
        "meta_object_name": "FENGYUN 1C DEB",
        "meta_object_id": "1999-025ANQ",
        "meta_epoch": "2025-12-24T02:17:37.896000",
        "meta_mean_motion": 14.04415433,
        "meta_eccentricity": 0.0130061,
        "meta_inclination": 98.4205,
        "meta_ra_of_asc_node": 222.2832,
        "meta_arg_of_pericenter": 227.8599,
        "meta_mean_anomaly": 286.6703,
        "meta_ephemeris_type": 0,
        "meta_classification_type": "U",
        "meta_norad_cat_id": 30633,
        "meta_element_set_no": 999,
        "meta_rev_at_epoch": 96051,
        "meta_bstar": 0.00082978265,
        "meta_mean_motion_dot": 1.385e-05,
        "meta_mean_motion_ddot": 0,
        "tle_line1": "1 30633U 99025ANQ 25358.09557750  .00001385  00000+0  82978-3 0  9994",
        "tle_line2": "2 30633  98.4205 222.2832 0130061 227.8599 286.6703 14.04415433960511"
      },
      "geometry": {
        "type": "Point",
        "coordinates": [
          57.43764179221311,
          56.05875162349592
        ]
      }
    },
    {
      "type": "Feature",
      "properties": {
        "norad_id": 30634,
        "name": "FENGYUN 1C DEB",
        "group": "fengyun-1c-debris",
        "lat": 39.22076823998531,
        "lon": -23.68582285672209,
        "alt_km": 773.263505057721,
        "timestamp": "2025-12-26T17:24:54.997034+00:00",
        "meta_object_name": "FENGYUN 1C DEB",
        "meta_object_id": "1999-025ANR",
        "meta_epoch": "2025-12-25T21:04:57.194400",
        "meta_mean_motion": 14.09809496,
        "meta_eccentricity": 0.01213226,
        "meta_inclination": 99.2942,
        "meta_ra_of_asc_node": 343.1204,
        "meta_arg_of_pericenter": 60.1953,
        "meta_mean_anomaly": 2.7159,
        "meta_ephemeris_type": 0,
        "meta_classification_type": "U",
        "meta_norad_cat_id": 30634,
        "meta_element_set_no": 999,
        "meta_rev_at_epoch": 95802,
        "meta_bstar": 0.0023454617,
        "meta_mean_motion_dot": 4.37e-05,
        "meta_mean_motion_ddot": 0,
        "tle_line1": "1 30634U 99025ANR 25359.87843975  .00004370  00000+0  23455-2 0  9990",
        "tle_line2": "2 30634  99.2942 343.1204 0121322  60.1953   2.7159 14.09809496958023"
      },
      "geometry": {
        "type": "Point",
        "coordinates": [
          -23.68582285672209,
          39.22076823998531
        ]
      }
    },
    {
      "type": "Feature",
      "properties": {
        "norad_id": 30639,
        "name": "FENGYUN 1C DEB",
        "group": "fengyun-1c-debris",
        "lat": 52.59306069942767,
        "lon": -54.74439920820226,
        "alt_km": 798.4311942560198,
        "timestamp": "2025-12-26T17:24:54.997044+00:00",
        "meta_object_name": "FENGYUN 1C DEB",
        "meta_object_id": "1999-025ANW",
        "meta_epoch": "2025-12-26T05:05:12.225984",
        "meta_mean_motion": 14.32545843,
        "meta_eccentricity": 0.00687889,
        "meta_inclination": 99.0174,
        "meta_ra_of_asc_node": 112.737,
        "meta_arg_of_pericenter": 242.4358,
        "meta_mean_anomaly": 116.9826,
        "meta_ephemeris_type": 0,
        "meta_classification_type": "U",
        "meta_norad_cat_id": 30639,
        "meta_element_set_no": 999,
        "meta_rev_at_epoch": 96912,
        "meta_bstar": 0.0032874263,
        "meta_mean_motion_dot": 9.117e-05,
        "meta_mean_motion_ddot": 0,
        "tle_line1": "1 30639U 99025ANW 25360.21194706  .00009117  00000+0  32874-2 0  9995",
        "tle_line2": "2 30639  99.0174 112.7370 0068788 242.4358 116.9826 14.32545843969128"
      },
      "geometry": {
        "type": "Point",
        "coordinates": [
          -54.74439920820226,
          52.59306069942767
        ]
      }
    },
    {
      "type": "Feature",
      "properties": {
        "norad_id": 30640,
        "name": "FENGYUN 1C DEB",
        "group": "fengyun-1c-debris",
        "lat": 80.93394442767314,
        "lon": -16.024761738919974,
        "alt_km": 785.0623498008154,
        "timestamp": "2025-12-26T17:24:54.997054+00:00",
        "meta_object_name": "FENGYUN 1C DEB",
        "meta_object_id": "1999-025ANX",
        "meta_epoch": "2025-12-26T03:44:47.628384",
        "meta_mean_motion": 14.14699568,
        "meta_eccentricity": 0.00799173,
        "meta_inclination": 99.0558,
        "meta_ra_of_asc_node": 71.5552,
        "meta_arg_of_pericenter": 62.755,
        "meta_mean_anomaly": 7.5578,
        "meta_ephemeris_type": 0,
        "meta_classification_type": "U",
        "meta_norad_cat_id": 30640,
        "meta_element_set_no": 999,
        "meta_rev_at_epoch": 96635,
        "meta_bstar": 0.0013128692,
        "meta_mean_motion_dot": 2.561e-05,
        "meta_mean_motion_ddot": 0,
        "tle_line1": "1 30640U 99025ANX 25360.15610681  .00002561  00000+0  13129-2 0  9993",
        "tle_line2": "2 30640  99.0558  71.5552 0079917  62.7550   7.5578 14.14699568966358"
      },
      "geometry": {
        "type": "Point",
        "coordinates": [
          -16.024761738919974,
          80.93394442767314
        ]
      }
    },
    {
      "type": "Feature",
      "properties": {
        "norad_id": 30641,
        "name": "FENGYUN 1C DEB",
        "group": "fengyun-1c-debris",
        "lat": 31.181745989702787,
        "lon": -68.81161242913109,
        "alt_km": 569.8127553316835,
        "timestamp": "2025-12-26T17:24:54.997064+00:00",
        "meta_object_name": "FENGYUN 1C DEB",
        "meta_object_id": "1999-025ANY",
        "meta_epoch": "2025-12-25T18:40:48.635616",
        "meta_mean_motion": 14.79069319,
        "meta_eccentricity": 0.01364075,
        "meta_inclination": 98.9438,
        "meta_ra_of_asc_node": 295.6046,
        "meta_arg_of_pericenter": 85.9027,
        "meta_mean_anomaly": 305.9609,
        "meta_ephemeris_type": 0,
        "meta_classification_type": "U",
        "meta_norad_cat_id": 30641,
        "meta_element_set_no": 999,
        "meta_rev_at_epoch": 725,
        "meta_bstar": 0.00062013702,
        "meta_mean_motion_dot": 5.301e-05,
        "meta_mean_motion_ddot": 0,
        "tle_line1": "1 30641U 99025ANY 25359.77834069  .00005301  00000+0  62014-3 0  9991",
        "tle_line2": "2 30641  98.9438 295.6046 0136407  85.9027 305.9609 14.79069319  7256"
      },
      "geometry": {
        "type": "Point",
        "coordinates": [
          -68.81161242913109,
          31.181745989702787
        ]
      }
    }
  ]
}